{
    "links": {
        "self": "http://www.neowsapp.com/rest/v1/neo/3672905?api_key=iIulBulltgU6a56xZRHN4H3l9WmuAYTsLGpBGhQ2"
    },
    "id": "3672905",
    "neo_reference_id": "3672905",
    "name": "(2014 KW76)",
    "designation": "2014 KW76",
    "nasa_jpl_url": "http://ssd.jpl.nasa.gov/sbdb.cgi?sstr=3672905",
    "absolute_magnitude_h": 27.9,
    "estimated_diameter": {
        "kilometers": {
            "estimated_diameter_min": 0.0069912523,
            "estimated_diameter_max": 0.0156329154
        },
        "meters": {
            "estimated_diameter_min": 6.9912523225,
            "estimated_diameter_max": 15.6329154409
        },
        "miles": {
            "estimated_diameter_min": 0.0043441614,
            "estimated_diameter_max": 0.0097138403
        },
        "feet": {
            "estimated_diameter_min": 22.9371802696,
            "estimated_diameter_max": 51.289094295
        }
    },
    "is_potentially_hazardous_asteroid": false,
    "close_approach_data": [
        {
            "close_approach_date": "1979-12-01",
            "close_approach_date_full": "1979-Dec-01 19:29",
            "epoch_date_close_approach": 312924540000,
            "relative_velocity": {
                "kilometers_per_second": "29.2417044916",
                "kilometers_per_hour": "105270.1361697326",
                "miles_per_hour": "65410.768777243"
            },
            "miss_distance": {
                "astronomical": "0.470655651",
                "lunar": "183.085048239",
                "kilometers": "70409082.89306337",
                "miles": "43750175.387159706"
            },
            "orbiting_body": "Earth"
        },
        {
            "close_approach_date": "1984-06-14",
            "close_approach_date_full": "1984-Jun-14 01:10",
            "epoch_date_close_approach": 456023400000,
            "relative_velocity": {
                "kilometers_per_second": "24.4867922277",
                "kilometers_per_hour": "88152.4520196462",
                "miles_per_hour": "54774.5055340963"
            },
            "miss_distance": {
                "astronomical": "0.3232754349",
                "lunar": "125.7541441761",
                "kilometers": "48361316.484363663",
                "miles": "30050328.6111300294"
            },
            "orbiting_body": "Earth"
        },
        {
            "close_approach_date": "2012-01-02",
            "close_approach_date_full": "2012-Jan-02 13:39",
            "epoch_date_close_approach": 1325511540000,
            "relative_velocity": {
                "kilometers_per_second": "12.9712304663",
                "kilometers_per_hour": "46696.4296785641",
                "miles_per_hour": "29015.3454299944"
            },
            "miss_distance": {
                "astronomical": "0.069272371",
                "lunar": "26.946952319",
                "kilometers": "10362999.15144977",
                "miles": "6439269.079836026"
            },
            "orbiting_body": "Earth"
        },
        {
            "close_approach_date": "2014-05-26",
            "close_approach_date_full": "2014-May-26 17:54",
            "epoch_date_close_approach": 1401126840000,
            "relative_velocity": {
                "kilometers_per_second": "15.6929804789",
                "kilometers_per_hour": "56494.7297241991",
                "miles_per_hour": "35103.6280333503"
            },
            "miss_distance": {
                "astronomical": "0.0035597795",
                "lunar": "1.3847542255",
                "kilometers": "532535.430869665",
                "miles": "330902.172604777"
            },
            "orbiting_body": "Moon"
        },
        {
            "close_approach_date": "2014-05-26",
            "close_approach_date_full": "2014-May-26 23:29",
            "epoch_date_close_approach": 1401146940000,
            "relative_velocity": {
                "kilometers_per_second": "15.125477161",
                "kilometers_per_hour": "54451.7177794456",
                "miles_per_hour": "33834.1798613449"
            },
            "miss_distance": {
                "astronomical": "0.0022983002",
                "lunar": "0.8940387778",
                "kilometers": "343820.814540574",
                "miles": "213640.3475209612"
            },
            "orbiting_body": "Earth"
        }
    ],
    "orbital_data": {
        "orbit_id": "8",
        "orbit_determination_date": "2017-04-06 08:40:16",
        "first_observation_date": "2014-05-28",
        "last_observation_date": "2014-06-01",
        "data_arc_in_days": 4,
        "observations_used": 34,
        "orbit_uncertainty": "7",
        "minimum_orbit_intersection": ".00151365",
        "jupiter_tisserand_invariant": "4.033",
        "epoch_osculation": "2459000.5",
        "eccentricity": ".5611975404772205",
        "semi_major_axis": "1.682306178780768",
        "inclination": "2.335144247359976",
        "ascending_node_longitude": "67.44787196992378",
        "orbital_period": "796.9957158025005",
        "perihelion_distance": ".7382000889193697",
        "perihelion_argument": "102.0168476609624",
        "aphelion_distance": "2.626412268642166",
        "perihelion_time": "2459146.501329775730",
        "mean_anomaly": "294.051742465969",
        "mean_motion": ".4516962799950731",
        "equinox": "J2000",
        "orbit_class": {
            "orbit_class_type": "APO",
            "orbit_class_description": "Near-Earth asteroid orbits which cross the Earth’s orbit similar to that of 1862 Apollo",
            "orbit_class_range": "a (semi-major axis) > 1.0 AU; q (perihelion) < 1.017 AU"
        }
    },
    "is_sentry_object": false
}